start=new Date('2021-12-11T00:00:00.000Z').valueOf();
sats=[{"PERIAPSIS":"546.069","BSTAR":"0.00005654400000","REV_AT_EPOCH":"3340","TIME_SYSTEM":"UTC","MEAN_ANOMALY":"264.5543","DECAY_DATE":null,"MEAN_ELEMENT_THEORY":"SGP4","TLE_LINE1":"1 48361U 21038J   21344.70896984  .00000561  00000-0  56544-4 0  9991","MEAN_MOTION_DOT":"0.00000561","OBJECT_ID":"2021-038J","CENTER_NAME":"EARTH","COUNTRY_CODE":"US","REF_FRAME":"TEME","PERIOD":"95.593","GP_ID":"191458953","INCLINATION":"53.0459","OBJECT_NAME":"STARLINK-2591","MEAN_MOTION":"15.06390980","APOAPSIS":"548.414","RCS_SIZE":"LARGE","MEAN_MOTION_DDOT":"0.0000000000000","SITE":"AFETR","EPHEMERIS_TYPE":"0","CLASSIFICATION_TYPE":"U","RA_OF_ASC_NODE":"119.7859","LAUNCH_DATE":"2021-05-04","TLE_LINE2":"2 48361  53.0459 119.7859 0001693  95.5639 264.5543 15.06390980 33406","OBJECT_TYPE":"PAYLOAD","SEMIMAJOR_AXIS":"6925.376","ELEMENT_SET_NO":"999","NORAD_CAT_ID":"48361","ECCENTRICITY":"0.00016930","ARG_OF_PERICENTER":"95.5639","FILE":"3237005","EPOCH":"2021-12-10T17:00:54.994176"},{"COUNTRY_CODE":"US","CENTER_NAME":"EARTH","OBJECT_ID":"2021-038K","PERIOD":"95.592","REF_FRAME":"TEME","GP_ID":"191459704","INCLINATION":"53.0603","DECAY_DATE":null,"TLE_LINE1":"1 48362U 21038K   21344.80016262 -.00000098  00000-0  12323-4 0  9999","MEAN_ELEMENT_THEORY":"SGP4","MEAN_MOTION_DOT":"-0.00000098","BSTAR":"0.00001232300000","REV_AT_EPOCH":"3342","TIME_SYSTEM":"UTC","MEAN_ANOMALY":"267.9425","PERIAPSIS":"546.210","ECCENTRICITY":"0.00014430","NORAD_CAT_ID":"48362","ARG_OF_PERICENTER":"92.1730","EPOCH":"2021-12-10T19:12:14.050368","FILE":"3237005","TLE_LINE2":"2 48362  53.0603 119.3108 0001443  92.1730 267.9425 15.06401256 33426","OBJECT_TYPE":"PAYLOAD","LAUNCH_DATE":"2021-05-04","RA_OF_ASC_NODE":"119.3108","SEMIMAJOR_AXIS":"6925.345","ELEMENT_SET_NO":"999","EPHEMERIS_TYPE":"0","SITE":"AFETR","CLASSIFICATION_TYPE":"U","OBJECT_NAME":"STARLINK-2578","MEAN_MOTION":"15.06401256","APOAPSIS":"548.209","MEAN_MOTION_DDOT":"0.0000000000000","RCS_SIZE":"LARGE"},{"SITE":"AFETR","EPHEMERIS_TYPE":"0","CLASSIFICATION_TYPE":"U","OBJECT_NAME":"STARLINK-2626","MEAN_MOTION":"15.06392650","APOAPSIS":"548.170","RCS_SIZE":"LARGE","MEAN_MOTION_DDOT":"0.0000000000000","NORAD_CAT_ID":"48363","ECCENTRICITY":"0.00013490","ARG_OF_PERICENTER":"88.0351","FILE":"3237005","EPOCH":"2021-12-10T18:02:36.493728","RA_OF_ASC_NODE":"114.5490","TLE_LINE2":"2 48363  53.0553 114.5490 0001349  88.0351 272.0792 15.06392650 33487","OBJECT_TYPE":"PAYLOAD","LAUNCH_DATE":"2021-05-04","SEMIMAJOR_AXIS":"6925.371","ELEMENT_SET_NO":"999","BSTAR":"-0.00009692400000","TIME_SYSTEM":"UTC","REV_AT_EPOCH":"3348","MEAN_ANOMALY":"272.0792","PERIAPSIS":"546.302","CENTER_NAME":"EARTH","OBJECT_ID":"2021-038L","COUNTRY_CODE":"US","REF_FRAME":"TEME","PERIOD":"95.593","INCLINATION":"53.0553","GP_ID":"191458452","DECAY_DATE":null,"MEAN_ELEMENT_THEORY":"SGP4","TLE_LINE1":"1 48363U 21038L   21344.75181127 -.00001724  00000-0 -96924-4 0  9994","MEAN_MOTION_DOT":"-0.00001724"},{"TIME_SYSTEM":"UTC","REV_AT_EPOCH":"3348","BSTAR":"0.00007031000000","MEAN_ANOMALY":"264.6525","PERIAPSIS":"545.958","REF_FRAME":"TEME","PERIOD":"95.593","COUNTRY_CODE":"US","CENTER_NAME":"EARTH","OBJECT_ID":"2021-038M","INCLINATION":"53.0558","GP_ID":"191458202","DECAY_DATE":null,"MEAN_MOTION_DOT":"0.00000766","TLE_LINE1":"1 48364U 21038M   21344.74718543  .00000766  00000-0  70310-4 0  9996","MEAN_ELEMENT_THEORY":"SGP4","CLASSIFICATION_TYPE":"U","EPHEMERIS_TYPE":"0","SITE":"AFETR","MEAN_MOTION":"15.06391852","OBJECT_NAME":"STARLINK-2611","MEAN_MOTION_DDOT":"0.0000000000000","RCS_SIZE":"LARGE","APOAPSIS":"548.519","ECCENTRICITY":"0.00018490","NORAD_CAT_ID":"48364","EPOCH":"2021-12-10T17:55:56.821152","FILE":"3237005","ARG_OF_PERICENTER":"95.4675","LAUNCH_DATE":"2021-05-04","TLE_LINE2":"2 48364  53.0558 114.5726 0001849  95.4675 264.6525 15.06391852 33485","OBJECT_TYPE":"PAYLOAD","RA_OF_ASC_NODE":"114.5726","ELEMENT_SET_NO":"999","SEMIMAJOR_AXIS":"6925.374"},{"OBJECT_NAME":"STARLINK-2608","MEAN_MOTION":"15.06398629","APOAPSIS":"548.206","RCS_SIZE":"LARGE","MEAN_MOTION_DDOT":"0.0000000000000","SITE":"AFETR","EPHEMERIS_TYPE":"0","CLASSIFICATION_TYPE":"U","RA_OF_ASC_NODE":"114.9733","TLE_LINE2":"2 48365  53.0563 114.9733 0001427  96.9155 263.1996 15.06398629 33479","OBJECT_TYPE":"PAYLOAD","LAUNCH_DATE":"2021-05-04","SEMIMAJOR_AXIS":"6925.353","ELEMENT_SET_NO":"999","NORAD_CAT_ID":"48365","ECCENTRICITY":"0.00014270","ARG_OF_PERICENTER":"96.9155","FILE":"3237005","EPOCH":"2021-12-10T15:49:54.619680","PERIAPSIS":"546.230","BSTAR":"0.00007624300000","REV_AT_EPOCH":"3347","TIME_SYSTEM":"UTC","MEAN_ANOMALY":"263.1996","DECAY_DATE":null,"MEAN_ELEMENT_THEORY":"SGP4","TLE_LINE1":"1 48365U 21038N   21344.65965995  .00000854  00000-0  76243-4 0  9991","MEAN_MOTION_DOT":"0.00000854","CENTER_NAME":"EARTH","OBJECT_ID":"2021-038N","COUNTRY_CODE":"US","REF_FRAME":"TEME","PERIOD":"95.592","INCLINATION":"53.0563","GP_ID":"191459454"},{"SEMIMAJOR_AXIS":"6925.374","ELEMENT_SET_NO":"999","LAUNCH_DATE":"2021-05-04","TLE_LINE2":"2 48366  53.0554 109.4237 0001399  95.8842 264.2306 15.06391592 33555","OBJECT_TYPE":"PAYLOAD","RA_OF_ASC_NODE":"109.4237","ARG_OF_PERICENTER":"95.8842","EPOCH":"2021-12-10T18:43:04.724256","FILE":"3237005","ECCENTRICITY":"0.00013990","NORAD_CAT_ID":"48366","APOAPSIS":"548.208","MEAN_MOTION_DDOT":"0.0000000000000","RCS_SIZE":"MEDIUM","OBJECT_NAME":"STARLINK-2631","MEAN_MOTION":"15.06391592","EPHEMERIS_TYPE":"0","SITE":"AFETR","CLASSIFICATION_TYPE":"U","TLE_LINE1":"1 48366U 21038P   21344.77991579  .00000709  00000-0  66487-4 0  9990","MEAN_ELEMENT_THEORY":"SGP4","MEAN_MOTION_DOT":"0.00000709","DECAY_DATE":null,"GP_ID":"191459204","INCLINATION":"53.0554","COUNTRY_CODE":"US","CENTER_NAME":"EARTH","OBJECT_ID":"2021-038P","REF_FRAME":"TEME","PERIOD":"95.593","PERIAPSIS":"546.270","MEAN_ANOMALY":"264.2306","BSTAR":"0.00006648700000","REV_AT_EPOCH":"3355","TIME_SYSTEM":"UTC"},{"EPHEMERIS_TYPE":"0","SITE":"AFETR","CLASSIFICATION_TYPE":"U","OBJECT_NAME":"STARLINK-2643","MEAN_MOTION":"15.06395091","APOAPSIS":"548.236","MEAN_MOTION_DDOT":"0.0000000000000","RCS_SIZE":"LARGE","ECCENTRICITY":"0.00014550","NORAD_CAT_ID":"48367","ARG_OF_PERICENTER":"101.1405","EPOCH":"2021-12-10T20:13:18.613920","FILE":"3237005","TLE_LINE2":"2 48367  53.0569 109.1577 0001455 101.1405 258.9747 15.06395091 33563","LAUNCH_DATE":"2021-05-04","OBJECT_TYPE":"PAYLOAD","RA_OF_ASC_NODE":"109.1577","SEMIMAJOR_AXIS":"6925.364","ELEMENT_SET_NO":"999","BSTAR":"-0.00004545200000","TIME_SYSTEM":"UTC","REV_AT_EPOCH":"3356","MEAN_ANOMALY":"258.9747","PERIAPSIS":"546.221","COUNTRY_CODE":"US","CENTER_NAME":"EARTH","OBJECT_ID":"2021-038Q","REF_FRAME":"TEME","PERIOD":"95.592","GP_ID":"191457952","INCLINATION":"53.0569","DECAY_DATE":null,"TLE_LINE1":"1 48367U 21038Q   21344.84257655 -.00000958  00000-0 -45452-4 0  9996","MEAN_ELEMENT_THEORY":"SGP4","MEAN_MOTION_DOT":"-0.00000958"},{"MEAN_MOTION":"15.06395598","OBJECT_NAME":"STARLINK-2623","RCS_SIZE":"LARGE","MEAN_MOTION_DDOT":"0.0000000000000","APOAPSIS":"548.137","CLASSIFICATION_TYPE":"U","EPHEMERIS_TYPE":"0","SITE":"AFETR","RA_OF_ASC_NODE":"109.6566","TLE_LINE2":"2 48368  53.0550 109.6566 0001314  99.2493 260.8644 15.06395598 33554","LAUNCH_DATE":"2021-05-04","OBJECT_TYPE":"PAYLOAD","ELEMENT_SET_NO":"999","SEMIMAJOR_AXIS":"6925.362","NORAD_CAT_ID":"48368","ECCENTRICITY":"0.00013140","FILE":"3237005","EPOCH":"2021-12-10T17:27:24.631488","ARG_OF_PERICENTER":"99.2493","PERIAPSIS":"546.317","TIME_SYSTEM":"UTC","REV_AT_EPOCH":"3355","BSTAR":"0.00007008000000","MEAN_ANOMALY":"260.8644","DECAY_DATE":null,"MEAN_MOTION_DOT":"0.00000762","MEAN_ELEMENT_THEORY":"SGP4","TLE_LINE1":"1 48368U 21038R   21344.72736842  .00000762  00000-0  70080-4 0  9990","REF_FRAME":"TEME","PERIOD":"95.592","CENTER_NAME":"EARTH","OBJECT_ID":"2021-038R","COUNTRY_CODE":"US","INCLINATION":"53.0550","GP_ID":"191458703"},{"OBJECT_NAME":"STARLINK-2641","MEAN_MOTION":"15.06394396","APOAPSIS":"548.422","RCS_SIZE":"LARGE","MEAN_MOTION_DDOT":"0.0000000000000","EPHEMERIS_TYPE":"0","SITE":"AFETR","CLASSIFICATION_TYPE":"U","RA_OF_ASC_NODE":"109.1593","TLE_LINE2":"2 48369  53.0539 109.1593 0001720  90.9459 269.1727 15.06394396 33568","OBJECT_TYPE":"PAYLOAD","LAUNCH_DATE":"2021-05-04","SEMIMAJOR_AXIS":"6925.366","ELEMENT_SET_NO":"999","NORAD_CAT_ID":"48369","ECCENTRICITY":"0.00017200","ARG_OF_PERICENTER":"90.9459","FILE":"3237005","EPOCH":"2021-12-10T20:08:00.044160","PERIAPSIS":"546.040","BSTAR":"-0.00004299200000","REV_AT_EPOCH":"3356","TIME_SYSTEM":"UTC","MEAN_ANOMALY":"269.1727","DECAY_DATE":null,"MEAN_ELEMENT_THEORY":"SGP4","TLE_LINE1":"1 48369U 21038S   21344.83888940 -.00000922  00000-0 -42992-4 0  9991","MEAN_MOTION_DOT":"-0.00000922","OBJECT_ID":"2021-038S","CENTER_NAME":"EARTH","COUNTRY_CODE":"US","REF_FRAME":"TEME","PERIOD":"95.592","INCLINATION":"53.0539","GP_ID":"191458954"},{"SEMIMAJOR_AXIS":"6925.362","ELEMENT_SET_NO":"999","TLE_LINE2":"2 48370  53.0552 109.1766 0001555  92.8172 267.2995 15.06395642 33567","OBJECT_TYPE":"PAYLOAD","LAUNCH_DATE":"2021-05-04","RA_OF_ASC_NODE":"109.1766","ARG_OF_PERICENTER":"92.8172","EPOCH":"2021-12-10T20:02:42.306432","FILE":"3237005","ECCENTRICITY":"0.00015550","NORAD_CAT_ID":"48370","APOAPSIS":"548.304","MEAN_MOTION_DDOT":"0.0000000000000","RCS_SIZE":"LARGE","OBJECT_NAME":"STARLINK-2621","MEAN_MOTION":"15.06395642","EPHEMERIS_TYPE":"0","SITE":"AFETR","CLASSIFICATION_TYPE":"U","TLE_LINE1":"1 48370U 21038T   21344.83521188  .00000677  00000-0  64329-4 0  9994","MEAN_ELEMENT_THEORY":"SGP4","MEAN_MOTION_DOT":"0.00000677","DECAY_DATE":null,"GP_ID":"191459705","INCLINATION":"53.0552","COUNTRY_CODE":"US","OBJECT_ID":"2021-038T","CENTER_NAME":"EARTH","REF_FRAME":"TEME","PERIOD":"95.592","PERIAPSIS":"546.150","MEAN_ANOMALY":"267.2995","BSTAR":"0.00006432900000","REV_AT_EPOCH":"3356","TIME_SYSTEM":"UTC"}];
